[{"OBJECT_NAME":"GAOFEN-9 05","OBJECT_ID":"2020-058A","EPOCH":"2026-03-10T00:01:50.876256","MEAN_MOTION":15.30293976,"ECCENTRICITY":0.0010522,"INCLINATION":97.2228,"RA_OF_ASC_NODE":111.963,"ARG_OF_PERICENTER":91.0204,"MEAN_ANOMALY":269.2242,"EPHEMERIS_TYPE":0,"CLASSIFICATION_TYPE":"U","NORAD_CAT_ID":46232,"ELEMENT_SET_NO":999,"REV_AT_EPOCH":30843,"BSTAR":0.00025120304,"MEAN_MOTION_DOT":7.299e-5,"MEAN_MOTION_DDOT":0},{"OBJECT_NAME":"STARLINK-31953","OBJECT_ID":"2024-100P","EPOCH":"2026-03-09T13:00:23.450976","MEAN_MOTION":15.27573178,"ECCENTRICITY":0.00012849,"INCLINATION":43.0009,"RA_OF_ASC_NODE":122.8244,"ARG_OF_PERICENTER":216.3366,"MEAN_ANOMALY":143.7398,"EPHEMERIS_TYPE":0,"CLASSIFICATION_TYPE":"U","NORAD_CAT_ID":59898,"ELEMENT_SET_NO":999,"REV_AT_EPOCH":10117,"BSTAR":-7.8925757e-5,"MEAN_MOTION_DOT":-2.433e-5,"MEAN_MOTION_DDOT":0}]
